[{"OBJECT_NAME":"SL-8 R/B","OBJECT_ID":"1979-089B","EPOCH":"2026-04-04T06:28:16.565952","MEAN_MOTION":14.42369247,"ECCENTRICITY":0.00165342,"INCLINATION":74.0702,"RA_OF_ASC_NODE":43.6889,"ARG_OF_PERICENTER":212.8113,"MEAN_ANOMALY":147.2018,"EPHEMERIS_TYPE":0,"CLASSIFICATION_TYPE":"U","NORAD_CAT_ID":11574,"ELEMENT_SET_NO":999,"REV_AT_EPOCH":43979,"BSTAR":0.000164543,"MEAN_MOTION_DOT":5.18e-6,"MEAN_MOTION_DDOT":0},{"OBJECT_NAME":"SL-14 R/B","OBJECT_ID":"1980-005B","EPOCH":"2026-04-04T05:32:14.959680","MEAN_MOTION":14.90962304,"ECCENTRICITY":0.00172306,"INCLINATION":82.5107,"RA_OF_ASC_NODE":283.0013,"ARG_OF_PERICENTER":79.4284,"MEAN_ANOMALY":280.8875,"EPHEMERIS_TYPE":0,"CLASSIFICATION_TYPE":"U","NORAD_CAT_ID":11672,"ELEMENT_SET_NO":999,"REV_AT_EPOCH":48029,"BSTAR":8.6873896e-5,"MEAN_MOTION_DOT":8.85e-6,"MEAN_MOTION_DDOT":0},{"OBJECT_NAME":"SL-8 R/B","OBJECT_ID":"1981-003B","EPOCH":"2026-04-03T23:00:42.305472","MEAN_MOTION":15.12164288,"ECCENTRICITY":0.02598728,"INCLINATION":82.9334,"RA_OF_ASC_NODE":266.6348,"ARG_OF_PERICENTER":90.8612,"MEAN_ANOMALY":272.2403,"EPHEMERIS_TYPE":0,"CLASSIFICATION_TYPE":"U","NORAD_CAT_ID":12139,"ELEMENT_SET_NO":999,"REV_AT_EPOCH":31849,"BSTAR":0.00084192488,"MEAN_MOTION_DOT":0.0003385,"MEAN_MOTION_DDOT":0},{"OBJECT_NAME":"SL-3 R/B","OBJECT_ID":"1981-046B","EPOCH":"2026-04-04T05:12:09.191520","MEAN_MOTION":15.42667571,"ECCENTRICITY":0.00180682,"INCLINATION":81.2289,"RA_OF_ASC_NODE":259.0699,"ARG_OF_PERICENTER":291.3975,"MEAN_ANOMALY":68.534,"EPHEMERIS_TYPE":0,"CLASSIFICATION_TYPE":"U","NORAD_CAT_ID":12465,"ELEMENT_SET_NO":999,"REV_AT_EPOCH":44236,"BSTAR":0.00044337649,"MEAN_MOTION_DOT":0.00019486,"MEAN_MOTION_DDOT":0},{"OBJECT_NAME":"SL-3 R/B","OBJECT_ID":"1981-103B","EPOCH":"2026-04-04T06:55:39.792000","MEAN_MOTION":15.21699844,"ECCENTRICITY":0.00130764,"INCLINATION":81.1611,"RA_OF_ASC_NODE":183.4025,"ARG_OF_PERICENTER":195.8467,"MEAN_ANOMALY":164.2358,"EPHEMERIS_TYPE":0,"CLASSIFICATION_TYPE":"U","NORAD_CAT_ID":12904,"ELEMENT_SET_NO":999,"REV_AT_EPOCH":97712,"BSTAR":0.0003739419,"MEAN_MOTION_DOT":8.507e-5,"MEAN_MOTION_DDOT":0},{"OBJECT_NAME":"SL-3 R/B","OBJECT_ID":"1982-013B","EPOCH":"2026-04-04T05:18:04.064832","MEAN_MOTION":15.22258087,"ECCENTRICITY":0.00235037,"INCLINATION":81.1722,"RA_OF_ASC_NODE":130.8412,"ARG_OF_PERICENTER":94.2092,"MEAN_ANOMALY":266.1826,"EPHEMERIS_TYPE":0,"CLASSIFICATION_TYPE":"U","NORAD_CAT_ID":13068,"ELEMENT_SET_NO":999,"REV_AT_EPOCH":40823,"BSTAR":0.00028210798,"MEAN_MOTION_DOT":6.564e-5,"MEAN_MOTION_DDOT":0},{"OBJECT_NAME":"SL-3 R/B","OBJECT_ID":"1982-039B","EPOCH":"2026-04-04T07:10:29.600544","MEAN_MOTION":15.10238166,"ECCENTRICITY":0.00281811,"INCLINATION":81.1558,"RA_OF_ASC_NODE":186.4311,"ARG_OF_PERICENTER":239.1157,"MEAN_ANOMALY":120.7296,"EPHEMERIS_TYPE":0,"CLASSIFICATION_TYPE":"U","NORAD_CAT_ID":13154,"ELEMENT_SET_NO":999,"REV_AT_EPOCH":38550,"BSTAR":0.00029995517,"MEAN_MOTION_DOT":4.973e-5,"MEAN_MOTION_DDOT":0},{"OBJECT_NAME":"SL-3 R/B","OBJECT_ID":"1982-079B","EPOCH":"2026-04-04T06:09:57.258144","MEAN_MOTION":15.25153776,"ECCENTRICITY":0.00254116,"INCLINATION":81.1474,"RA_OF_ASC_NODE":162.8869,"ARG_OF_PERICENTER":80.9789,"MEAN_ANOMALY":279.4319,"EPHEMERIS_TYPE":0,"CLASSIFICATION_TYPE":"U","NORAD_CAT_ID":13403,"ELEMENT_SET_NO":999,"REV_AT_EPOCH":38159,"BSTAR":0.00036998927,"MEAN_MOTION_DOT":9.388e-5,"MEAN_MOTION_DDOT":0},{"OBJECT_NAME":"SL-14 R/B","OBJECT_ID":"1982-092B","EPOCH":"2026-04-04T07:06:06.812352","MEAN_MOTION":14.86691224,"ECCENTRICITY":0.00194498,"INCLINATION":82.565,"RA_OF_ASC_NODE":117.4432,"ARG_OF_PERICENTER":212.4313,"MEAN_ANOMALY":256.1744,"EPHEMERIS_TYPE":0,"CLASSIFICATION_TYPE":"U","NORAD_CAT_ID":13553,"ELEMENT_SET_NO":999,"REV_AT_EPOCH":33273,"BSTAR":7.1792067e-5,"MEAN_MOTION_DOT":6.64e-6,"MEAN_MOTION_DDOT":0},{"OBJECT_NAME":"SL-3 R/B","OBJECT_ID":"1983-010B","EPOCH":"2026-04-04T02:52:16.031136","MEAN_MOTION":15.47250003,"ECCENTRICITY":0.00154565,"INCLINATION":81.1031,"RA_OF_ASC_NODE":331.0523,"ARG_OF_PERICENTER":322.3975,"MEAN_ANOMALY":37.6188,"EPHEMERIS_TYPE":0,"CLASSIFICATION_TYPE":"U","NORAD_CAT_ID":13819,"ELEMENT_SET_NO":999,"REV_AT_EPOCH":36187,"BSTAR":0.00048192329,"MEAN_MOTION_DOT":0.00024719,"MEAN_MOTION_DDOT":0},{"OBJECT_NAME":"SL-3 R/B","OBJECT_ID":"1983-075B","EPOCH":"2026-04-04T05:51:54.174528","MEAN_MOTION":15.39063962,"ECCENTRICITY":0.00228526,"INCLINATION":97.6135,"RA_OF_ASC_NODE":99.8014,"ARG_OF_PERICENTER":134.9214,"MEAN_ANOMALY":225.3891,"EPHEMERIS_TYPE":0,"CLASSIFICATION_TYPE":"U","NORAD_CAT_ID":14208,"ELEMENT_SET_NO":999,"REV_AT_EPOCH":33408,"BSTAR":0.00046951054,"MEAN_MOTION_DOT":0.00018264,"MEAN_MOTION_DDOT":0},{"OBJECT_NAME":"COSMOS 1536","OBJECT_ID":"1984-013A","EPOCH":"2026-04-03T23:58:03.713376","MEAN_MOTION":15.24199696,"ECCENTRICITY":0.00140278,"INCLINATION":82.542,"RA_OF_ASC_NODE":82.6778,"ARG_OF_PERICENTER":185.2558,"MEAN_ANOMALY":174.8535,"EPHEMERIS_TYPE":0,"CLASSIFICATION_TYPE":"U","NORAD_CAT_ID":14699,"ELEMENT_SET_NO":999,"REV_AT_EPOCH":27647,"BSTAR":0.00047999063,"MEAN_MOTION_DOT":0.00011761,"MEAN_MOTION_DDOT":0},{"OBJECT_NAME":"SL-14 R/B","OBJECT_ID":"1984-027B","EPOCH":"2026-04-04T06:44:50.883072","MEAN_MOTION":14.86006611,"ECCENTRICITY":0.00166396,"INCLINATION":82.5427,"RA_OF_ASC_NODE":221.0105,"ARG_OF_PERICENTER":246.85,"MEAN_ANOMALY":113.0964,"EPHEMERIS_TYPE":0,"CLASSIFICATION_TYPE":"U","NORAD_CAT_ID":14820,"ELEMENT_SET_NO":999,"REV_AT_EPOCH":25143,"BSTAR":9.5202695e-5,"MEAN_MOTION_DOT":8.58e-6,"MEAN_MOTION_DDOT":0},{"OBJECT_NAME":"SL-8 R/B","OBJECT_ID":"1985-006B","EPOCH":"2026-04-03T18:51:33.274656","MEAN_MOTION":14.3780249,"ECCENTRICITY":0.00174759,"INCLINATION":74.046,"RA_OF_ASC_NODE":214.9674,"ARG_OF_PERICENTER":125.2686,"MEAN_ANOMALY":346.417,"EPHEMERIS_TYPE":0,"CLASSIFICATION_TYPE":"U","NORAD_CAT_ID":15483,"ELEMENT_SET_NO":999,"REV_AT_EPOCH":15763,"BSTAR":0.0001692627,"MEAN_MOTION_DOT":4.85e-6,"MEAN_MOTION_DDOT":0},{"OBJECT_NAME":"SL-12 R/B(2)","OBJECT_ID":"1985-042D","EPOCH":"2026-04-04T07:26:29.490720","MEAN_MOTION":14.21990371,"ECCENTRICITY":0.00328337,"INCLINATION":71.11,"RA_OF_ASC_NODE":33.598,"ARG_OF_PERICENTER":85.5759,"MEAN_ANOMALY":27.2414,"EPHEMERIS_TYPE":0,"CLASSIFICATION_TYPE":"U","NORAD_CAT_ID":15772,"ELEMENT_SET_NO":999,"REV_AT_EPOCH":11803,"BSTAR":0.00012233508,"MEAN_MOTION_DOT":2.24e-6,"MEAN_MOTION_DDOT":0},{"OBJECT_NAME":"SL-14 R/B","OBJECT_ID":"1985-069B","EPOCH":"2026-04-04T06:11:41.936064","MEAN_MOTION":14.86462769,"ECCENTRICITY":0.00202931,"INCLINATION":82.5304,"RA_OF_ASC_NODE":0.8976,"ARG_OF_PERICENTER":106.3248,"MEAN_ANOMALY":254.0202,"EPHEMERIS_TYPE":0,"CLASSIFICATION_TYPE":"U","NORAD_CAT_ID":15945,"ELEMENT_SET_NO":999,"REV_AT_EPOCH":17663,"BSTAR":8.3439924e-5,"MEAN_MOTION_DOT":7.64e-6,"MEAN_MOTION_DDOT":0},{"OBJECT_NAME":"SL-16 R/B","OBJECT_ID":"1985-097B","EPOCH":"2026-04-04T06:31:04.613952","MEAN_MOTION":14.16602594,"ECCENTRICITY":0.00092058,"INCLINATION":71.0009,"RA_OF_ASC_NODE":86.6937,"ARG_OF_PERICENTER":229.2006,"MEAN_ANOMALY":220.7877,"EPHEMERIS_TYPE":0,"CLASSIFICATION_TYPE":"U","NORAD_CAT_ID":16182,"ELEMENT_SET_NO":999,"REV_AT_EPOCH":9085,"BSTAR":-5.4325219e-5,"MEAN_MOTION_DOT":-1.56e-6,"MEAN_MOTION_DDOT":0}]
