SL-8 R/B                
1 11574U 79089B   26094.26963618  .00000518  00000+0  16454-3 0  9999
2 11574  74.0702  43.6889 0016534 212.8113 147.2018 14.42369247439792
SL-14 R/B               
1 11672U 80005B   26094.23072870  .00000885  00000+0  86874-4 0  9997
2 11672  82.5107 283.0013 0017230  79.4284 280.8875 14.90962304480295
SL-8 R/B                
1 12139U 81003B   26093.95882298  .00033850  00000+0  84192-3 0  9994
2 12139  82.9334 266.6348 0259872  90.8612 272.2403 15.12164288318494
SL-3 R/B                
1 12465U 81046B   26094.21677305  .00019486  00000+0  44338-3 0  9991
2 12465  81.2289 259.0699 0018068 291.3975  68.5340 15.42667571442368
SL-3 R/B                
1 12904U 81103B   26094.28865500  .00008507  00000+0  37394-3 0  9992
2 12904  81.1611 183.4025 0013076 195.8467 164.2358 15.21699844977120
SL-3 R/B                
1 13068U 82013B   26094.22088038  .00006564  00000+0  28211-3 0  9991
2 13068  81.1722 130.8412 0023503  94.2092 266.1826 15.22258087408237
SL-3 R/B                
1 13154U 82039B   26094.29895371  .00004973  00000+0  29996-3 0  9991
2 13154  81.1558 186.4311 0028181 239.1157 120.7296 15.10238166385507
SL-3 R/B                
1 13403U 82079B   26094.25691271  .00009388  00000+0  36999-3 0  9997
2 13403  81.1474 162.8869 0025411  80.9789 279.4319 15.25153776381595
SL-14 R/B               
1 13553U 82092B   26094.29591218  .00000664  00000+0  71792-4 0  9991
2 13553  82.5650 117.4432 0019449 212.4313 256.1744 14.86691224332730
SL-3 R/B                
1 13819U 83010B   26094.11962999  .00024719  00000+0  48192-3 0  9990
2 13819  81.1031 331.0523 0015456 322.3975  37.6188 15.47250003361872
SL-3 R/B                
1 14208U 83075B   26094.24437702  .00018264  00000+0  46951-3 0  9996
2 14208  97.6135  99.8014 0022852 134.9214 225.3891 15.39063962334084
COSMOS 1536             
1 14699U 84013A   26093.99865409  .00011761  00000+0  47999-3 0  9991
2 14699  82.5420  82.6778 0014027 185.2558 174.8535 15.24199696276479
SL-14 R/B               
1 14820U 84027B   26094.28114448  .00000858  00000+0  95203-4 0  9992
2 14820  82.5427 221.0105 0016639 246.8500 113.0964 14.86006611251438
SL-8 R/B                
1 15483U 85006B   26093.78580179  .00000485  00000+0  16926-3 0  9998
2 15483  74.0460 214.9674 0017475 125.2686 346.4170 14.37802490157636
SL-12 R/B(2)            
1 15772U 85042D   26094.31006355  .00000224  00000+0  12234-3 0  9997
2 15772  71.1100  33.5980 0032833  85.5759  27.2414 14.21990371118030
SL-14 R/B               
1 15945U 85069B   26094.25812426  .00000764  00000+0  83440-4 0  9992
2 15945  82.5304   0.8976 0020293 106.3248 254.0202 14.86462769176639
SL-16 R/B               
1 16182U 85097B   26094.27158118 -.00000156  00000+0 -54325-4 0  9997
2 16182  71.0009  86.6937 0009205 229.2006 220.7877 14.16602594 90856
